CCSDS_OMM_VERS = 2.0
CREATION_DATE  = 
ORIGINATOR     = 

OBJECT_NAME    = STARLINK-37091
OBJECT_ID      = 2026-050AA
CENTER_NAME    = EARTH
REF_FRAME      = TEME
TIME_SYSTEM    = UTC
MEAN_ELEMENT_THEORY = SGP/SGP4

EPOCH          = 2026-03-19T13:32:49.437312
MEAN_MOTION    = 16.00938134
ECCENTRICITY   = .0000718
INCLINATION    = 53.1618
RA_OF_ASC_NODE = 232.5067
ARG_OF_PERICENTER = 334.0180
MEAN_ANOMALY   = 26.0815

EPHEMERIS_TYPE = 0
CLASSIFICATION_TYPE = U
NORAD_CAT_ID   = 68191
ELEMENT_SET_NO = 999
REV_AT_EPOCH   = 203
BSTAR          = -.11877E-2
MEAN_MOTION_DOT = -.661998E-2
MEAN_MOTION_DDOT = .16019E-3

CCSDS_OMM_VERS = 2.0
CREATION_DATE  = 
ORIGINATOR     = 

OBJECT_NAME    = STARLINK-37098
OBJECT_ID      = 2026-050AB
CENTER_NAME    = EARTH
REF_FRAME      = TEME
TIME_SYSTEM    = UTC
MEAN_ELEMENT_THEORY = SGP/SGP4

EPOCH          = 2026-03-19T13:32:29.433984
MEAN_MOTION    = 16.01069674
ECCENTRICITY   = .0000647
INCLINATION    = 53.1618
RA_OF_ASC_NODE = 232.5054
ARG_OF_PERICENTER = 327.3796
MEAN_ANOMALY   = 32.7195

EPHEMERIS_TYPE = 0
CLASSIFICATION_TYPE = U
NORAD_CAT_ID   = 68192
ELEMENT_SET_NO = 999
REV_AT_EPOCH   = 203
BSTAR          = -.12086E-2
MEAN_MOTION_DOT = -.678632E-2
MEAN_MOTION_DDOT = .16763E-3

CCSDS_OMM_VERS = 2.0
CREATION_DATE  = 
ORIGINATOR     = 

OBJECT_NAME    = STARLINK-37090
OBJECT_ID      = 2026-050AC
CENTER_NAME    = EARTH
REF_FRAME      = TEME
TIME_SYSTEM    = UTC
MEAN_ELEMENT_THEORY = SGP/SGP4

EPOCH          = 2026-03-19T13:31:47.877312
MEAN_MOTION    = 16.01369308
ECCENTRICITY   = .0000711
INCLINATION    = 53.1621
RA_OF_ASC_NODE = 232.5012
ARG_OF_PERICENTER = 333.6069
MEAN_ANOMALY   = 26.4927

EPHEMERIS_TYPE = 0
CLASSIFICATION_TYPE = U
NORAD_CAT_ID   = 68193
ELEMENT_SET_NO = 999
REV_AT_EPOCH   = 203
BSTAR          = -.11396E-2
MEAN_MOTION_DOT = -.651387E-2
MEAN_MOTION_DDOT = .15641E-3

CCSDS_OMM_VERS = 2.0
CREATION_DATE  = 
ORIGINATOR     = 

OBJECT_NAME    = STARLINK-37093
OBJECT_ID      = 2026-050AD
CENTER_NAME    = EARTH
REF_FRAME      = TEME
TIME_SYSTEM    = UTC
MEAN_ELEMENT_THEORY = SGP/SGP4

EPOCH          = 2026-03-19T13:33:27.860256
MEAN_MOTION    = 16.00670231
ECCENTRICITY   = .0001079
INCLINATION    = 53.1623
RA_OF_ASC_NODE = 232.5098
ARG_OF_PERICENTER = 125.0257
MEAN_ANOMALY   = 235.0876

EPHEMERIS_TYPE = 0
CLASSIFICATION_TYPE = U
NORAD_CAT_ID   = 68194
ELEMENT_SET_NO = 999
REV_AT_EPOCH   = 203
BSTAR          = -.12185E-2
MEAN_MOTION_DOT = -.668674E-2
MEAN_MOTION_DDOT = .16258E-3

CCSDS_OMM_VERS = 2.0
CREATION_DATE  = 
ORIGINATOR     = 

OBJECT_NAME    = STARLINK-37058
OBJECT_ID      = 2026-050AE
CENTER_NAME    = EARTH
REF_FRAME      = TEME
TIME_SYSTEM    = UTC
MEAN_ELEMENT_THEORY = SGP/SGP4

EPOCH          = 2026-03-19T07:32:38.614848
MEAN_MOTION    = 16.02049525
ECCENTRICITY   = .00025242
INCLINATION    = 53.1616
RA_OF_ASC_NODE = 233.7917
ARG_OF_PERICENTER = 340.0443
MEAN_ANOMALY   = 20.0490

EPHEMERIS_TYPE = 0
CLASSIFICATION_TYPE = U
NORAD_CAT_ID   = 68195
ELEMENT_SET_NO = 999
REV_AT_EPOCH   = 43
BSTAR          = -.12605076E-2
MEAN_MOTION_DOT = -.749084E-2
MEAN_MOTION_DDOT = .20202573E-3

CCSDS_OMM_VERS = 2.0
CREATION_DATE  = 
ORIGINATOR     = 

OBJECT_NAME    = YAOGAN-50 02
OBJECT_ID      = 2026-051A
CENTER_NAME    = EARTH
REF_FRAME      = TEME
TIME_SYSTEM    = UTC
MEAN_ELEMENT_THEORY = SGP/SGP4

EPOCH          = 2026-03-20T00:00:02.495232
MEAN_MOTION    = 14.02354822
ECCENTRICITY   = .00855894
INCLINATION    = 141.9942
RA_OF_ASC_NODE = 256.6193
ARG_OF_PERICENTER = 153.1893
MEAN_ANOMALY   = 207.3280

EPHEMERIS_TYPE = 0
CLASSIFICATION_TYPE = U
NORAD_CAT_ID   = 68196
ELEMENT_SET_NO = 999
REV_AT_EPOCH   = 63
BSTAR          = .2823449E-4
MEAN_MOTION_DOT = .241E-5
MEAN_MOTION_DDOT = 0

CCSDS_OMM_VERS = 2.0
CREATION_DATE  = 
ORIGINATOR     = 

OBJECT_NAME    = CZ-6A R/B
OBJECT_ID      = 2026-051B
CENTER_NAME    = EARTH
REF_FRAME      = TEME
TIME_SYSTEM    = UTC
MEAN_ELEMENT_THEORY = SGP/SGP4

EPOCH          = 2026-03-23T18:31:14.964672
MEAN_MOTION    = 14.56364371
ECCENTRICITY   = .01860668
INCLINATION    = 142.0320
RA_OF_ASC_NODE = 278.9006
ARG_OF_PERICENTER = 151.7732
MEAN_ANOMALY   = 209.3218

EPHEMERIS_TYPE = 0
CLASSIFICATION_TYPE = U
NORAD_CAT_ID   = 68197
ELEMENT_SET_NO = 999
REV_AT_EPOCH   = 121
BSTAR          = .15477719E-3
MEAN_MOTION_DOT = .1182E-4
MEAN_MOTION_DDOT = 0

CCSDS_OMM_VERS = 2.0
CREATION_DATE  = 
ORIGINATOR     = 

OBJECT_NAME    = 2026-052A
OBJECT_ID      = 2026-052A
CENTER_NAME    = EARTH
REF_FRAME      = TEME
TIME_SYSTEM    = UTC
MEAN_ELEMENT_THEORY = SGP/SGP4

EPOCH          = 2026-03-23T23:19:23.028384
MEAN_MOTION    = 15.09902366
ECCENTRICITY   = .00127108
INCLINATION    = 97.5363
RA_OF_ASC_NODE = 159.0976
ARG_OF_PERICENTER = 236.5324
MEAN_ANOMALY   = 123.4691

EPHEMERIS_TYPE = 0
CLASSIFICATION_TYPE = U
NORAD_CAT_ID   = 68198
ELEMENT_SET_NO = 999
REV_AT_EPOCH   = 118
BSTAR          = .42501717E-3
MEAN_MOTION_DOT = .6838E-4
MEAN_MOTION_DDOT = 0

CCSDS_OMM_VERS = 2.0
CREATION_DATE  = 
ORIGINATOR     = 

OBJECT_NAME    = YUXING-3 06
OBJECT_ID      = 2026-052B
CENTER_NAME    = EARTH
REF_FRAME      = TEME
TIME_SYSTEM    = UTC
MEAN_ELEMENT_THEORY = SGP/SGP4

EPOCH          = 2026-03-23T23:18:14.827680
MEAN_MOTION    = 15.10034955
ECCENTRICITY   = .00118037
INCLINATION    = 97.5367
RA_OF_ASC_NODE = 159.0981
ARG_OF_PERICENTER = 237.6406
MEAN_ANOMALY   = 122.3682

EPHEMERIS_TYPE = 0
CLASSIFICATION_TYPE = U
NORAD_CAT_ID   = 68199
ELEMENT_SET_NO = 999
REV_AT_EPOCH   = 118
BSTAR          = .32740113E-3
MEAN_MOTION_DOT = .5269E-4
MEAN_MOTION_DDOT = 0

CCSDS_OMM_VERS = 2.0
CREATION_DATE  = 
ORIGINATOR     = 

OBJECT_NAME    = 2026-052C
OBJECT_ID      = 2026-052C
CENTER_NAME    = EARTH
REF_FRAME      = TEME
TIME_SYSTEM    = UTC
MEAN_ELEMENT_THEORY = SGP/SGP4

EPOCH          = 2026-03-23T23:17:15.176256
MEAN_MOTION    = 15.10165996
ECCENTRICITY   = .00115416
INCLINATION    = 97.5360
RA_OF_ASC_NODE = 159.1000
ARG_OF_PERICENTER = 240.5018
MEAN_ANOMALY   = 119.5061

EPHEMERIS_TYPE = 0
CLASSIFICATION_TYPE = U
NORAD_CAT_ID   = 68200
ELEMENT_SET_NO = 999
REV_AT_EPOCH   = 117
BSTAR          = .32290528E-3
MEAN_MOTION_DOT = .5215E-4
MEAN_MOTION_DDOT = 0

CCSDS_OMM_VERS = 2.0
CREATION_DATE  = 
ORIGINATOR     = 

OBJECT_NAME    = 2026-052D
OBJECT_ID      = 2026-052D
CENTER_NAME    = EARTH
REF_FRAME      = TEME
TIME_SYSTEM    = UTC
MEAN_ELEMENT_THEORY = SGP/SGP4

EPOCH          = 2026-03-23T04:11:15.595584
MEAN_MOTION    = 15.10349642
ECCENTRICITY   = .00106232
INCLINATION    = 97.5345
RA_OF_ASC_NODE = 158.3130
ARG_OF_PERICENTER = 243.8917
MEAN_ANOMALY   = 116.1220

EPHEMERIS_TYPE = 0
CLASSIFICATION_TYPE = U
NORAD_CAT_ID   = 68201
ELEMENT_SET_NO = 999
REV_AT_EPOCH   = 106
BSTAR          = .98769632E-3
MEAN_MOTION_DOT = .16184E-3
MEAN_MOTION_DDOT = 0

CCSDS_OMM_VERS = 2.0
CREATION_DATE  = 
ORIGINATOR     = 

OBJECT_NAME    = 2026-052E
OBJECT_ID      = 2026-052E
CENTER_NAME    = EARTH
REF_FRAME      = TEME
TIME_SYSTEM    = UTC
MEAN_ELEMENT_THEORY = SGP/SGP4

EPOCH          = 2026-03-23T02:35:50.422272
MEAN_MOTION    = 15.10329913
ECCENTRICITY   = .00105426
INCLINATION    = 97.5365
RA_OF_ASC_NODE = 158.2509
ARG_OF_PERICENTER = 240.2924
MEAN_ANOMALY   = 119.7257

EPHEMERIS_TYPE = 0
CLASSIFICATION_TYPE = U
NORAD_CAT_ID   = 68202
ELEMENT_SET_NO = 999
REV_AT_EPOCH   = 105
BSTAR          = .44376548E-3
MEAN_MOTION_DOT = .7223E-4
MEAN_MOTION_DDOT = 0

CCSDS_OMM_VERS = 2.0
CREATION_DATE  = 
ORIGINATOR     = 

OBJECT_NAME    = 2026-052F
OBJECT_ID      = 2026-052F
CENTER_NAME    = EARTH
REF_FRAME      = TEME
TIME_SYSTEM    = UTC
MEAN_ELEMENT_THEORY = SGP/SGP4

EPOCH          = 2026-03-23T23:14:13.077024
MEAN_MOTION    = 15.10601182
ECCENTRICITY   = .00098392
INCLINATION    = 97.5357
RA_OF_ASC_NODE = 159.1046
ARG_OF_PERICENTER = 232.7965
MEAN_ANOMALY   = 127.2367

EPHEMERIS_TYPE = 0
CLASSIFICATION_TYPE = U
NORAD_CAT_ID   = 68203
ELEMENT_SET_NO = 999
REV_AT_EPOCH   = 118
BSTAR          = .47462842E-3
MEAN_MOTION_DOT = .7787E-4
MEAN_MOTION_DDOT = 0

CCSDS_OMM_VERS = 2.0
CREATION_DATE  = 
ORIGINATOR     = 

OBJECT_NAME    = 2026-052G
OBJECT_ID      = 2026-052G
CENTER_NAME    = EARTH
REF_FRAME      = TEME
TIME_SYSTEM    = UTC
MEAN_ELEMENT_THEORY = SGP/SGP4

EPOCH          = 2026-03-23T23:13:51.108096
MEAN_MOTION    = 15.10648691
ECCENTRICITY   = .00094317
INCLINATION    = 97.5369
RA_OF_ASC_NODE = 159.1005
ARG_OF_PERICENTER = 236.1157
MEAN_ANOMALY   = 123.9176

EPHEMERIS_TYPE = 0
CLASSIFICATION_TYPE = U
NORAD_CAT_ID   = 68204
ELEMENT_SET_NO = 999
REV_AT_EPOCH   = 118
BSTAR          = .48320069E-3
MEAN_MOTION_DOT = .7939E-4
MEAN_MOTION_DDOT = 0

CCSDS_OMM_VERS = 2.0
CREATION_DATE  = 
ORIGINATOR     = 

OBJECT_NAME    = KZ-11 R/B
OBJECT_ID      = 2026-052H
CENTER_NAME    = EARTH
REF_FRAME      = TEME
TIME_SYSTEM    = UTC
MEAN_ELEMENT_THEORY = SGP/SGP4

EPOCH          = 2026-03-23T22:13:18.838272
MEAN_MOTION    = 14.66942633
ECCENTRICITY   = .05476984
INCLINATION    = 97.3413
RA_OF_ASC_NODE = 158.7388
ARG_OF_PERICENTER = 347.9135
MEAN_ANOMALY   = 10.9353

EPHEMERIS_TYPE = 0
CLASSIFICATION_TYPE = U
NORAD_CAT_ID   = 68205
ELEMENT_SET_NO = 999
REV_AT_EPOCH   = 114
BSTAR          = .46298294E-3
MEAN_MOTION_DOT = .31084E-3
MEAN_MOTION_DDOT = .188216E-5

